CCSDS_OEM_VERS = 1.0
CREATION_DATE  = 2017-05-11T11:06:42
ORIGINATOR     = GMAT USER

META_START
OBJECT_NAME          = MOPSSat_alt_35785_km_RAAN_0_140
OBJECT_ID            = SatId
CENTER_NAME          = Earth
REF_FRAME            = EME2000
TIME_SYSTEM          = UTC
START_TIME           = 2017-01-01T00:00:00.000
USEABLE_START_TIME   = 2017-01-01T00:00:00.000
USEABLE_STOP_TIME    = 2017-01-02T00:00:00.000
STOP_TIME            = 2017-01-02T00:00:00.000
INTERPOLATION        = Lagrange
INTERPOLATION_DEGREE = 7 
META_STOP


                                                                                   

2017-01-01T04:16:40.000  -1.483519243754447e+04   3.858801017490890e+04   6.735740681416130e+02  -3.131716072967658e+00   1.379289768556206e-01   2.424692892625022e-03
2017-01-01T04:16:50.000  -1.486650541326134e+04   3.858937858765737e+04   6.735981253766131e+02  -3.130879018970162e+00   1.357538943983406e-01   2.386759722253551e-03
2017-01-01T04:17:00.000  -1.489781001338852e+04   3.859072525907190e+04   6.736218034456084e+02  -3.130040961708793e+00   1.335807101284502e-01   2.348859692635625e-03
2017-01-01T04:17:10.000  -1.492910622826243e+04   3.859205020814273e+04   6.736451026801532e+02  -3.129201903722554e+00   1.314094224659883e-01   2.310992776163073e-03
2017-01-01T04:17:20.000  -1.496039404785373e+04   3.859335345382593e+04   6.736680234112051e+02  -3.128361847554907e+00   1.292400298584525e-01   2.273158945706652e-03
2017-01-01T04:17:30.000  -1.499167346218066e+04   3.859463501506341e+04   6.736905659694719e+02  -3.127520795742820e+00   1.270725307519857e-01   2.235358174113529e-03
2017-01-01T04:17:40.000  -1.502294446121661e+04   3.859589491077822e+04   6.737127306853338e+02  -3.126678750819241e+00   1.249069235978264e-01   2.197590434319783e-03
2017-01-01T04:17:50.000  -1.505420703491571e+04   3.859713315987731e+04   6.737345178888885e+02  -3.125835715312492e+00   1.227432068504377e-01   2.159855699317775e-03
2017-01-01T04:18:00.000  -1.508546117324345e+04   3.859834978125144e+04   6.737559279099503e+02  -3.124991691745403e+00   1.205813789654769e-01   2.122153942120735e-03
2017-01-01T04:18:10.000  -1.511670686618789e+04   3.859954479377582e+04   6.737769610780620e+02  -3.124146682635010e+00   1.184214383990049e-01   2.084485135748968e-03
2017-01-01T04:18:20.000  -1.514794410387166e+04   3.860071821631499e+04   6.737976177225812e+02  -3.123300690489591e+00   1.162633835997081e-01   2.046849253094225e-03
2017-01-01T04:18:30.000  -1.517917287647709e+04   3.860187006771924e+04   6.738178981726156e+02  -3.122453717810646e+00   1.141072130141326e-01   2.009246267010967e-03
2017-01-01T04:18:40.000  -1.521039317424614e+04   3.860300036682470e+04   6.738378027570262e+02  -3.121605767092926e+00   1.119529250866730e-01   1.971676150316178e-03
2017-01-01T04:18:50.000  -1.524160498755451e+04   3.860410913245518e+04   6.738573318044594e+02  -3.120756840822376e+00   1.098005182545173e-01   1.934138875701196e-03
2017-01-01T04:19:00.000  -1.527280830680018e+04   3.860519638341886e+04   6.738764856432880e+02  -3.119906941479220e+00   1.076499909553024e-01   1.896634415865238e-03
2017-01-01T04:19:10.000  -1.530400312239215e+04   3.860626213850799e+04   6.738952646016070e+02  -3.119056071538272e+00   1.055013416278814e-01   1.859162743528770e-03
2017-01-01T04:19:20.000  -1.533518942471878e+04   3.860730641649653e+04   6.739136690071899e+02  -3.118204233469760e+00   1.033545687145882e-01   1.821723831473016e-03
2017-01-01T04:19:30.000  -1.536636720412343e+04   3.860832923614085e+04   6.739316991875057e+02  -3.117351429740064e+00   1.012096706628188e-01   1.784317652567530e-03
2017-01-01T04:19:40.000  -1.539753645099586e+04   3.860933061618220e+04   6.739493554697560e+02  -3.116497662809214e+00   9.906664591878719e-02   1.746944179661293e-03
2017-01-01T04:19:50.000  -1.542869715536233e+04   3.861031057533555e+04   6.739666381806836e+02  -3.115642935142236e+00   9.692549295558454e-02   1.709603386072044e-03
2017-01-01T04:20:00.000  -1.545984930738235e+04   3.861126913230353e+04   6.739835476468141e+02  -3.114787249195439e+00   9.478621023914960e-02   1.672295244992830e-03
2017-01-01T04:20:10.000  -1.549099289716378e+04   3.861220630577100e+04   6.740000841943641e+02  -3.113930607421526e+00   9.264879624095335e-02   1.635019729713219e-03
2017-01-01T04:20:20.000  -1.552212791547928e+04   3.861312211442691e+04   6.740162481496239e+02  -3.113073012249906e+00   9.051324938881782e-02   1.597776812761625e-03
2017-01-01T04:20:30.000  -1.555325435305149e+04   3.861401657694227e+04   6.740320398385696e+02  -3.112214466106350e+00   8.837956811600312e-02   1.560566466761333e-03
2017-01-01T04:20:40.000  -1.558437220071506e+04   3.861488971197560e+04   6.740474595869605e+02  -3.111354971408566e+00   8.624775085005729e-02   1.523388664236061e-03
2017-01-01T04:20:50.000  -1.561548144901241e+04   3.861574153815864e+04   6.740625077200864e+02  -3.110494530577214e+00   8.411779604069028e-02   1.486243378096057e-03
2017-01-01T04:21:00.000  -1.564658208849414e+04   3.861657207410776e+04   6.740771845629675e+02  -3.109633146027789e+00   8.198970213901835e-02   1.449130581276135e-03
2017-01-01T04:21:10.000  -1.567767410971841e+04   3.861738133842289e+04   6.740914904403368e+02  -3.108770820170580e+00   7.986346759767247e-02   1.412050246737570e-03
2017-01-01T04:21:20.000  -1.570875750295316e+04   3.861816934968238e+04   6.741054256765492e+02  -3.107907555419097e+00   7.773909089100281e-02   1.375002347820462e-03
2017-01-01T04:21:30.000  -1.573983225857757e+04   3.861893612645094e+04   6.741189905957216e+02  -3.107043354178808e+00   7.561657048778138e-02   1.337986857767670e-03
2017-01-01T04:21:40.000  -1.577089836692372e+04   3.861968168727621e+04   6.741321855216712e+02  -3.106178218851566e+00   7.349590486199555e-02   1.301003749913057e-03
2017-01-01T04:21:50.000  -1.580195581897759e+04   3.862040605070564e+04   6.741450107782168e+02  -3.105312151816109e+00   7.137709244498693e-02   1.264052996846796e-03
2017-01-01T04:22:00.000  -1.583300460567785e+04   3.862110923526945e+04   6.741574666888739e+02  -3.104445155447592e+00   6.926013167334268e-02   1.227134571250588e-03
2017-01-01T04:22:10.000  -1.586404471807446e+04   3.862179125948474e+04   6.741695535769314e+02  -3.103577232113189e+00   6.714502097804090e-02   1.190248445708359e-03
2017-01-01T04:22:20.000  -1.589507614692544e+04   3.862245214184386e+04   6.741812717652422e+02  -3.102708384183230e+00   6.503175881210563e-02   1.153394593188560e-03
2017-01-01T04:22:30.000  -1.592609888299650e+04   3.862309190082400e+04   6.741926215763953e+02  -3.101838614022994e+00   6.292034363001353e-02   1.116572986685017e-03
2017-01-01T04:22:40.000  -1.595711291706048e+04   3.862371055488588e+04   6.742036033326915e+02  -3.100967923992670e+00   6.081077388780130e-02   1.079783599218809e-03
2017-01-01T04:22:50.000  -1.598811823960028e+04   3.862430812247074e+04   6.742142173560893e+02  -3.100096316455866e+00   5.870304806311145e-02   1.043026404187834e-03
2017-01-01T04:23:00.000  -1.601911484120931e+04   3.862488462200564e+04   6.742244639682997e+02  -3.099223793768228e+00   5.659716462810877e-02   1.006301374894511e-03
2017-01-01T04:23:10.000  -1.605010271243060e+04   3.862544007190099e+04   6.742343434907426e+02  -3.098350358282008e+00   5.449312206039059e-02   9.696084847360388e-04
2017-01-01T04:23:20.000  -1.608108184446765e+04   3.862597449056326e+04   6.742438562447736e+02  -3.097476012326043e+00   5.239091879471362e-02   9.329477063625633e-04
2017-01-01T04:23:30.000  -1.611205222847153e+04   3.862648789638215e+04   6.742530025514528e+02  -3.096600758225839e+00   5.029055327141783e-02   8.963190125216405e-04
2017-01-01T04:23:40.000  -1.614301385572496e+04   3.862698030773395e+04   6.742617827316083e+02  -3.095724598298417e+00   4.819202392391565e-02   8.597223758400595e-04
2017-01-01T04:23:50.000  -1.617396671714686e+04   3.862745174297146e+04   6.742701971056547e+02  -3.094847534866211e+00   4.609532921241256e-02   8.231577694119041e-04
2017-01-01T04:24:00.000  -1.620491080370122e+04   3.862790222043276e+04   6.742782459937501e+02  -3.093969570245633e+00   4.400046759605701e-02   7.866251663128679e-04
2017-01-01T04:24:10.000  -1.623584610630279e+04   3.862833175843914e+04   6.742859297157584e+02  -3.093090706749723e+00   4.190743753937464e-02   7.501245397124629e-04
2017-01-01T04:24:20.000  -1.626677261585401e+04   3.862874037529710e+04   6.742932485912847e+02  -3.092210946687194e+00   3.981623750967573e-02   7.136558628288082e-04
2017-01-01T04:24:30.000  -1.629769032326186e+04   3.862912808929743e+04   6.743002029396598e+02  -3.091330292361895e+00   3.772686597599513e-02   6.772191089101427e-04
2017-01-01T04:24:40.000  -1.632859921947471e+04   3.862949491871569e+04   6.743067930799482e+02  -3.090448746071776e+00   3.563932140659492e-02   6.408142511912725e-04
2017-01-01T04:24:50.000  -1.635949929550018e+04   3.862984088181355e+04   6.743130193309729e+02  -3.089566310108453e+00   3.355360226769619e-02   6.044412628714571e-04
2017-01-01T04:25:00.000  -1.639039054244076e+04   3.863016599683794e+04   6.743188820112978e+02  -3.088682986756121e+00   3.146970702115687e-02   5.681001170739107e-04
2017-01-01T04:25:10.000  -1.642127295140022e+04   3.863047028202041e+04   6.743243814392198e+02  -3.087798778294277e+00   2.938763413075512e-02   5.317907869553780e-04
2017-01-01T04:25:20.000  -1.645214651388958e+04   3.863075375557930e+04   6.743295179328064e+02  -3.086913686985992e+00   2.730738203493930e-02   4.955132452309188e-04
2017-01-01T04:25:30.000  -1.648301122133483e+04   3.863101643571681e+04   6.743342918098429e+02  -3.086027715092125e+00   2.522894917990191e-02   4.592674647506877e-04
2017-01-01T04:25:40.000  -1.651386706526300e+04   3.863125834062032e+04   6.743387033878552e+02  -3.085140864865981e+00   2.315233400706763e-02   4.230534182817370e-04
